NORAD_CAT_ID,OBJECT_NAME,OBJECT_TYPE,EPOCH,MEAN_MOTION,ECCENTRICITY,INCLINATION,RA_OF_ASC_NODE,ARG_OF_PERICENTER,MEAN_ANOMALY,BSTAR,MEAN_MOTION_DOT,MEAN_MOTION_DDOT,TLE_LINE0,TLE_LINE1,TLE_LINE2,SEMIMAJOR_AXIS,PERIOD,APOGEE,PERIGEE,DECAYED
50816.0,STARLINK-3342,PAYLOAD,2023-07-15 01:25:35,15.08840529,0.0001059,53.2165,197.4725,82.3939,277.7174,9.319e-05,1.196e-05,0.0,0 STARLINK-3342,1 50816U 22001P   23196.05943572  .00001196  00000-0  93190-4 0  9994,2 50816  53.2165 197.4725 0001059  82.3939 277.7174 15.08840529 85457,6917.879,95.438,540.476,539.011,0.0
50816.0,STARLINK-3342,PAYLOAD,2023-07-16 09:13:18,15.08839789,0.0001067,53.2163,191.5249,83.0439,277.0674,3.6225e-05,2.89e-06,0.0,0 STARLINK-3342,1 50816U 22001P   23197.38423815  .00000289  00000-0  36225-4 0  9992,2 50816  53.2163 191.5249 0001067  83.0439 277.0674 15.08839789 85659,6917.881,95.438,540.484,539.008,0.0
50816.0,STARLINK-3342,PAYLOAD,2023-07-18 08:54:52,15.08840269,0.0001126,53.2165,182.6027,90.5992,269.5129,6.972e-05,8.22e-06,0.0,0 STARLINK-3342,1 50816U 22001P   23199.37143702  .00000822  00000-0  69720-4 0  9996,2 50816  53.2165 182.6027 0001126  90.5992 269.5129 15.08840269 85958,6917.88,95.438,540.524,538.966,0.0
50816.0,STARLINK-3342,PAYLOAD,2023-07-20 07:01:03,15.08835902,0.0001242,53.2174,173.9791,86.5294,273.584,3.0001e-05,1.9e-06,0.0,0 STARLINK-3342,1 50816U 22001P   23201.29240498  .00000190  00000-0  30001-4 0  9999,2 50816  53.2174 173.9791 0001242  86.5294 273.5840 15.08835902 86244,6917.893,95.438,540.617,538.899,0.0
50816.0,STARLINK-3342,PAYLOAD,2023-07-21 08:27:14,15.08837749,0.0001223,53.2173,169.222,89.2828,270.8304,3.4525e-05,2.62e-06,0.0,0 STARLINK-3342,1 50816U 22001P   23202.35224628  .00000262  00000-0  34525-4 0  9999,2 50816  53.2173 169.2220 0001223  89.2828 270.8304 15.08837749 86404,6917.887,95.438,540.598,538.906,0.0
50816.0,STARLINK-3342,PAYLOAD,2023-07-24 06:24:12,15.08826194,0.000165,53.2167,156.1394,78.9109,281.2069,7.8798e-05,9.66e-06,0.0,0 STARLINK-3342,1 50816U 22001P   23205.26681053  .00000966  00000-0  78798-4 0  9992,2 50816  53.2167 156.1394 0001650  78.9109 281.2069 15.08826194 85567,6917.923,95.438,540.929,538.646,0.0
50816.0,STARLINK-3342,PAYLOAD,2023-07-25 06:14:59,15.0883889,0.000219,53.2167,151.6804,70.549,289.5739,0.00011119,1.482e-05,0.0,0 STARLINK-3342,1 50816U 22001P   23206.26040864  .00001482  00000-0  11119-3 0  9999,2 50816  53.2167 151.6804 0002190  70.5490 289.5739 15.08838890 85712,6917.884,95.438,541.264,538.234,0.0
50816.0,STARLINK-3342,PAYLOAD,2023-07-26 04:30:23,15.08840232,0.0001796,53.2179,147.5164,78.4052,281.7141,4.7522e-05,4.68e-06,0.0,0 STARLINK-3342,1 50816U 22001P   23207.18776875  .00000468  00000-0  47522-4 0  9990,2 50816  53.2179 147.5164 0001796  78.4052 281.7141 15.08840232 85859,6917.88,95.438,540.987,538.502,0.0
50816.0,STARLINK-3342,PAYLOAD,2023-07-27 02:45:46,15.08842711,0.0001548,53.2181,143.3523,96.3676,263.7493,0.00014151,1.965e-05,0.0,0 STARLINK-3342,1 50816U 22001P   23208.11512472  .00001965  00000-0  14151-3 0  9999,2 50816  53.2181 143.3523 0001548  96.3676 263.7493 15.08842711 87273,6917.872,95.437,540.808,538.666,0.0
50816.0,STARLINK-3342,PAYLOAD,2023-07-27 05:56:33,15.08843419,0.0001521,53.2178,142.7574,96.0233,264.0932,0.00014391,2.003e-05,0.0,0 STARLINK-3342,1 50816U 22001P   23208.24760456  .00002003  00000-0  14391-3 0  9990,2 50816  53.2178 142.7574 0001521  96.0233 264.0932 15.08843419 86014,6917.87,95.437,540.787,538.683,0.0
50816.0,STARLINK-3342,PAYLOAD,2023-07-28 01:01:12,15.08828955,0.0001434,53.218,139.1861,100.9076,259.2077,-4.5114e-05,-1.006e-05,0.0,0 STARLINK-3342,1 50816U 22001P   23209.04250247 -.00001006  00000-0 -45114-4 0  9993,2 50816  53.2180 139.1861 0001434 100.9076 259.2077 15.08828955 87418,6917.914,95.438,540.771,538.787,0.0
50816.0,STARLINK-3342,PAYLOAD,2023-07-28 05:47:21,15.08827753,0.0001369,53.2181,138.2978,91.6427,268.4722,-3.4818e-05,-8.42e-06,0.0,0 STARLINK-3342,1 50816U 22001P   23209.24122510 -.00000842  00000-0 -34818-4 0  9992,2 50816  53.2181 138.2978 0001369  91.6427 268.4722 15.08827753 86166,6917.918,95.438,540.73,538.836,0.0
50816.0,STARLINK-3342,PAYLOAD,2023-07-28 18:30:26,15.08840091,0.0001304,53.2179,135.9184,90.5911,269.523,2.9643e-05,1.84e-06,0.0,0 STARLINK-3342,1 50816U 22001P   23209.77113769  .00000184  00000-0  29643-4 0  9993,2 50816  53.2179 135.9184 0001304  90.5911 269.5230 15.08840091 87528,6917.88,95.438,540.647,538.843,0.0
50816.0,STARLINK-3342,PAYLOAD,2023-07-29 02:27:21,15.08849836,0.0001301,53.2167,134.4319,89.3896,270.7246,0.00020526,2.981e-05,0.0,0 STARLINK-3342,1 50816U 22001P   23210.10233084  .00002981  00000-0  20526-3 0  9992,2 50816  53.2167 134.4319 0001301  89.3896 270.7246 15.08849836 87576,6917.85,95.437,540.615,538.815,0.0
50816.0,STARLINK-3342,PAYLOAD,2023-07-29 18:21:13,15.08842487,0.0001716,53.2164,131.4584,82.1503,277.9684,0.00030787,4.615e-05,0.0,0 STARLINK-3342,1 50816U 22001P   23210.76473924  .00004615  00000-0  30787-3 0  9999,2 50816  53.2164 131.4584 0001716  82.1503 277.9684 15.08842487 87671,6917.873,95.437,540.925,538.551,0.0
50816.0,STARLINK-3342,PAYLOAD,2023-07-31 00:33:32,15.08846831,0.0001363,53.216,125.8077,97.1728,262.9419,0.0002773,4.129e-05,0.0,0 STARLINK-3342,1 50816U 22001P   23212.02329512  .00004129  00000-0  27730-3 0  9997,2 50816  53.2160 125.8077 0001363  97.1728 262.9419 15.08846831 87862,6917.86,95.437,540.667,538.782,0.0
50816.0,STARLINK-3342,PAYLOAD,2023-07-31 18:02:47,15.08841471,0.0001531,53.2164,122.5379,89.394,270.7228,0.00018569,2.669e-05,0.0,0 STARLINK-3342,1 50816U 22001P   23212.75193901  .00002669  00000-0  18569-3 0  9995,2 50816  53.2164 122.5379 0001531  89.3940 270.7228 15.08841471 87973,6917.876,95.437,540.8,538.682,0.0
50816.0,STARLINK-3342,PAYLOAD,2023-08-02 00:15:07,15.08840779,0.0001581,53.2181,116.8873,97.0175,263.0997,0.00012769,1.745e-05,0.0,0 STARLINK-3342,1 50816U 22001P   23214.01050304  .00001745  00000-0  12769-3 0  9995,2 50816  53.2181 116.8873 0001581  97.0175 263.0997 15.08840779 88168,6917.878,95.438,540.837,538.649,0.0
50816.0,STARLINK-3342,PAYLOAD,2023-08-03 00:05:54,15.08852806,0.0001315,53.217,112.4272,91.5151,268.5991,0.00036204,5.481e-05,0.0,0 STARLINK-3342,1 50816U 22001P   23215.00409855  .00005481  00000-0  36204-3 0  9995,2 50816  53.2170 112.4272 0001315  91.5151 268.5991 15.08852806 88314,6917.841,95.437,540.616,538.797,0.0
50816.0,STARLINK-3342,PAYLOAD,2023-08-04 01:32:04,15.08835748,0.0001218,53.2167,107.6689,93.2779,266.8352,-2.6012e-05,-7.02e-06,0.0,0 STARLINK-3342,1 50816U 22001P   23216.06394561 -.00000702  00000-0 -26012-4 0  9999,2 50816  53.2167 107.6689 0001218  93.2779 266.8352 15.08835748 88470,6917.893,95.438,540.601,538.916,0.0
50816.0,STARLINK-3342,PAYLOAD,2023-08-04 22:12:05,15.0884878,0.0001168,53.2163,103.8036,97.0291,263.0834,0.00012558,1.712e-05,0.0,0 STARLINK-3342,1 50816U 22001P   23216.92506160  .00001712  00000-0  12558-3 0  9993,2 50816  53.2163 103.8036 0001168  97.0291 263.0834 15.08848780 88604,6917.854,95.437,540.527,538.911,0.0
50816.0,STARLINK-3342,PAYLOAD,2023-08-05 23:38:14,15.08860325,0.0001101,53.2158,99.0466,94.0098,266.102,0.00043284,6.611e-05,0.0,0 STARLINK-3342,1 50816U 22001P   23217.98489537  .00006611  00000-0  43284-3 0  9991,2 50816  53.2158  99.0466 0001101  94.0098 266.1020 15.08860325 88767,6917.818,95.436,540.445,538.922,0.0
50816.0,STARLINK-3342,PAYLOAD,2023-08-06 09:10:34,15.08841353,0.0001184,53.2156,97.2622,101.0566,259.0559,1.169e-05,-1.02e-06,0.0,0 STARLINK-3342,1 50816U 22001P   23218.38234072 -.00000102  00000-0  11690-4 0  9995,2 50816  53.2156  97.2622 0001184 101.0566 259.0559 15.08841353 88824,6917.876,95.437,540.56,538.922,0.0
50816.0,STARLINK-3342,PAYLOAD,2023-08-06 18:42:53,15.0882006,0.0001168,53.2156,95.479,107.0302,253.0818,-0.00047025,-7.76e-05,0.0,0 STARLINK-3342,1 50816U 22001P   23218.77978880 -.00007760  00000-0 -47025-3 0  9998,2 50816  53.2156  95.4790 0001168 107.0302 253.0818 15.08820060 88886,6917.941,95.439,540.614,538.998,0.0
50816.0,STARLINK-3342,PAYLOAD,2023-08-07 09:01:22,15.08830252,0.0001117,53.2159,92.802,114.4412,245.6696,9.7778e-05,1.268e-05,0.0,0 STARLINK-3342,1 50816U 22001P   23219.37595289  .00001268  00000-0  97778-4 0  9999,2 50816  53.2159  92.8020 0001117 114.4412 245.6696 15.08830252 88979,6917.91,95.438,540.548,539.002,0.0
50816.0,STARLINK-3342,PAYLOAD,2023-08-08 00:55:13,15.08857404,0.0001085,53.2159,89.8278,119.2648,240.8452,0.0014443,0.00022784,0.0,0 STARLINK-3342,1 50816U 22001P   23220.03835515  .00022784  00000-0  14443-2 0  9995,2 50816  53.2159  89.8278 0001085 119.2648 240.8452 15.08857404 89075,6917.827,95.436,540.443,538.942,0.0
50816.0,STARLINK-3342,PAYLOAD,2023-08-08 21:35:12,15.08890268,0.0001029,53.2163,85.9621,118.4716,241.6379,0.0012778,0.00020135,0.0,0 STARLINK-3342,1 50816U 22001P   23220.89945524  .00020135  00000-0  12778-2 0  9998,2 50816  53.2163  85.9621 0001029 118.4716 241.6379 15.08890268 89201,6917.727,95.434,540.304,538.88,0.0
50816.0,STARLINK-3342,PAYLOAD,2023-08-09 16:39:50,15.08830769,8.15e-05,53.2169,82.3929,117.5182,242.5893,-0.00061933,-0.00010128,0.0,0 STARLINK-3342,1 50816U 22001P   23221.69433739 -.00010128  00000-0 -61933-3 0  9998,2 50816  53.2169  82.3929 0000815 117.5182 242.5893 15.08830769 89322,6917.909,95.438,540.337,539.21,0.0
50816.0,STARLINK-3342,PAYLOAD,2023-08-10 14:55:15,15.08840107,7.96e-05,53.2169,78.231,83.9179,276.1904,0.0011593,0.0001821,0.0,0 STARLINK-3342,1 50816U 22001P   23222.62171029  .00018210  00000-0  11593-2 0  9997,2 50816  53.2169  78.2310 0000796  83.9179 276.1904 15.08840107 89468,6917.88,95.438,540.296,539.194,0.0
50816.0,STARLINK-3342,PAYLOAD,2023-08-11 06:49:07,15.08843757,0.0001295,53.2164,75.2554,90.9897,269.1243,0.00060629,9.375e-05,0.0,0 STARLINK-3342,1 50816U 22001P   23223.28410995  .00009375  00000-0  60629-3 0  9995,2 50816  53.2164  75.2554 0001295  90.9897 269.1243 15.08843757 89563,6917.869,95.437,540.63,538.838,0.0
